ORBCOMM FM37            
1 33064U 08031E   25290.02208014  .00002893  00000+0  40352-3 0  9991
2 33064  48.4374 124.2448 0005460 183.8672 309.6656 14.80255038932097
ORBCOMM FM40            
1 33065U 08031F   25289.88206733  .00004313  00000+0  55560-3 0  9996
2 33065  48.4393 106.8587 0006718 197.4496 313.4619 14.82652681932214
VESSELSAT 1             
1 37840U 11058C   25288.57303808  .00000405  00000+0  76522-4 0  9990
2 37840  19.9617  85.4143 0013724  70.8443 289.3446 14.11379807723330
ORBCOMM FM109           
1 40086U 14040A   25289.04578038  .00001155  00000+0  28335-3 0  9993
2 40086  47.0023 165.4216 0001512 194.1152 165.9692 14.58389307598708
ORBCOMM FM107           
1 40087U 14040B   25289.34213399  .00000805  00000+0  20823-3 0  9998
2 40087  47.0041 164.9353 0000624 122.1674 237.9273 14.58463739598828
ORBCOMM FM106           
1 40088U 14040C   25289.24864332  .00001561  00000+0  28980-3 0  9999
2 40088  47.0616 337.7475 0017708 269.5163  90.3698 14.69786296601287
ORBCOMM FM111           
1 40089U 14040D   25290.13042569  .00004849  00000+0  55327-3 0  9997
2 40089  46.9995 167.0389 0028930  56.7292 303.6371 14.87141112608379
ORBCOMM FM104           
1 40090U 14040E   25289.46427191  .00000960  00000+0  24966-3 0  9996
2 40090  47.0046 199.4337 0016144  36.9191 323.2802 14.56855210598309
